{"fetched_at":"2026-03-29T16:36:15Z","count":15609,"tles":[{"name":"STARLINK-3645","line1":"1 51986U 22025AG  26087.89485741  .00009377  00000+0  60602-3 0  9991","line2":"2 51986  53.2174 312.7535 0001493  88.2230 271.8933 15.08867995223962","category":"Starlink"}]}