{
  "norad_id": 51986,
  "name": "STARLINK-3645",
  "history": [
    {
      "epoch": "2026-03-28T21:28:35.680224Z",
      "apogee_km": 540.6906475384412,
      "perigee_km": 538.6249940049593,
      "latitude_deg": -1.114306231863323e-05,
      "longitude_deg": 164.2960764797228,
      "height_km": 540.5213284824733,
      "semi_major_axis_km": 6917.7948207717,
      "eccentricity": 0.0001493,
      "inclination_deg": 53.2174,
      "raan_deg": 312.7535,
      "arg_perigee_deg": 88.223,
      "mean_anomaly_deg": 271.8933,
      "mean_motion_rev_day": 15.08867995
    }
  ]
}